{
    "links": {
        "self": "http://www.neowsapp.com/rest/v1/neo/3879530?api_key=iIulBulltgU6a56xZRHN4H3l9WmuAYTsLGpBGhQ2"
    },
    "id": "3879530",
    "neo_reference_id": "3879530",
    "name": "(2019 UK4)",
    "designation": "2019 UK4",
    "nasa_jpl_url": "http://ssd.jpl.nasa.gov/sbdb.cgi?sstr=3879530",
    "absolute_magnitude_h": 27.1,
    "estimated_diameter": {
        "kilometers": {
            "estimated_diameter_min": 0.0101054342,
            "estimated_diameter_max": 0.0225964377
        },
        "meters": {
            "estimated_diameter_min": 10.1054341542,
            "estimated_diameter_max": 22.5964377109
        },
        "miles": {
            "estimated_diameter_min": 0.0062792237,
            "estimated_diameter_max": 0.0140407711
        },
        "feet": {
            "estimated_diameter_min": 33.1543125905,
            "estimated_diameter_max": 74.1352966996
        }
    },
    "is_potentially_hazardous_asteroid": false,
    "close_approach_data": [
        {
            "close_approach_date": "2019-10-10",
            "close_approach_date_full": "2019-Oct-10 19:00",
            "epoch_date_close_approach": 1570734000000,
            "relative_velocity": {
                "kilometers_per_second": "5.0549337508",
                "kilometers_per_hour": "18197.761502871",
                "miles_per_hour": "11307.381307159"
            },
            "miss_distance": {
                "astronomical": "0.0464578336",
                "lunar": "18.0720972704",
                "kilometers": "6949992.951374432",
                "miles": "4318525.3673018816"
            },
            "orbiting_body": "Earth"
        },
        {
            "close_approach_date": "2107-09-10",
            "close_approach_date_full": "2107-Sep-10 21:59",
            "epoch_date_close_approach": 4345135140000,
            "relative_velocity": {
                "kilometers_per_second": "8.2242405403",
                "kilometers_per_hour": "29607.2659449889",
                "miles_per_hour": "18396.8036645405"
            },
            "miss_distance": {
                "astronomical": "0.150264283",
                "lunar": "58.452806087",
                "kilometers": "22479216.67387721",
                "miles": "13967937.539277098"
            },
            "orbiting_body": "Earth"
        }
    ],
    "orbital_data": {
        "orbit_id": "1",
        "orbit_determination_date": "2019-10-24 08:42:09",
        "first_observation_date": "2019-10-23",
        "last_observation_date": "2019-10-24",
        "data_arc_in_days": 1,
        "observations_used": 13,
        "orbit_uncertainty": "8",
        "minimum_orbit_intersection": ".0457335",
        "jupiter_tisserand_invariant": "4.173",
        "epoch_osculation": "2458780.5",
        "eccentricity": ".3728546428327684",
        "semi_major_axis": "1.66455110219772",
        "inclination": "4.299570466938269",
        "ascending_node_longitude": "21.85189482424807",
        "orbital_period": "784.4118138638546",
        "perihelion_distance": "1.043915495510898",
        "perihelion_argument": "352.9374497747341",
        "aphelion_distance": "2.285186708884541",
        "perihelion_time": "2458765.682993249483",
        "mean_anomaly": "6.800155652821325",
        "mean_motion": ".4589426034096969",
        "equinox": "J2000",
        "orbit_class": {
            "orbit_class_type": "AMO",
            "orbit_class_description": "Near-Earth asteroid orbits similar to that of 1221 Amor",
            "orbit_class_range": "1.017 AU < q (perihelion) < 1.3 AU"
        }
    },
    "is_sentry_object": false
}